GLOBALSTAR M069         
1 31573U 07020C   26196.31275392 -.00000114  00000+0 -19912-3 0  9996
2 31573  52.0010 172.5192 0001651 210.5573 290.1472 12.23472227882243
GLOBALSTAR M072         
1 31574U 07020D   26196.83139559 -.00000071  00000+0  18198-3 0  9994
2 31574  51.9949  23.9867 0001656  36.7719  65.9941 11.91658842878399
GLOBALSTAR M066         
1 32265U 07048C   26196.66044346 -.00000052  00000+0  36375-3 0  9998
2 32265  51.9609 336.1749 0005594 102.7371 269.9817 12.30389489863733
GLOBALSTAR M079         
1 37188U 10054A   26196.79040104 -.00000103  00000+0  65491-5 0  9990
2 37188  52.0055  21.5976 0001128  78.4945 294.9613 12.62266446726160
GLOBALSTAR M074         
1 37189U 10054B   26196.83687948 -.00000104  00000+0  44185-6 0  9998
2 37189  52.0031  20.7171 0000869  93.5640  11.1658 12.62262022726775
GLOBALSTAR M076         
1 37190U 10054C   26196.76380811 -.00000096  00000+0  46166-4 0  9990
2 37190  52.0044  21.1451 0001095  93.6543 278.7739 12.62262357726482
GLOBALSTAR M077         
1 37191U 10054D   26196.13813914 -.00000100  00000+0 -39887-3 0  9995
2 37191  51.9955 108.3514 0002271 225.1845 282.4065 11.67547472724406
GLOBALSTAR M075         
1 37192U 10054E   26196.79128472 -.00000091  00000+0  71265-4 0  9991
2 37192  51.9955  63.0994 0000762  66.1193  11.7577 12.62267851725552
GLOBALSTAR M073         
1 37193U 10054F   26196.55416321 -.00000108  00000+0 -23289-4 0  9992
2 37193  52.0081 337.9443 0001059  96.7113 341.4488 12.62266867727516
GLOBALSTAR M083         
1 37739U 11033A   26196.57281197 -.00000074  00000+0  16682-3 0  9998
2 37739  51.9866 286.0787 0000770 107.2171 357.0003 12.62264174696539
GLOBALSTAR M088         
1 37740U 11033B   26196.71968198 -.00000114  00000+0 -56269-4 0  9991
2 37740  52.0187 192.1262 0000043  96.5099  74.1404 12.62269499692090
GLOBALSTAR M091         
1 37741U 11033C   26196.65357742 -.00000121  00000+0 -98039-4 0  9991
2 37741  51.9981 155.2505 0000434  24.3021 146.4094 12.62264251692874
GLOBALSTAR M085         
1 37742U 11033D   26196.76864926 -.00000096  00000+0  45443-4 0  9992
2 37742  52.0124 106.2174 0000786  41.9442 351.9385 12.62264336693406
GLOBALSTAR M081         
1 37743U 11033E   26196.79498411 -.00000104  00000+0 -30360-5 0  9992
2 37743  51.9953 108.5407 0000674  55.8576 337.6022 12.62265274693554
GLOBALSTAR M089         
1 37744U 11033F   26196.84448281 -.00000090  00000+0  76910-4 0  9992
2 37744  51.9937  62.5433 0000700  90.5015 349.1052 12.62267597694405
GLOBALSTAR M084         
1 38040U 11080A   26196.46204899 -.00000085  00000+0  10404-3 0  9996
2 38040  52.0021 291.2057 0000824 129.9842 310.7473 12.62263504672339
GLOBALSTAR M080         
1 38041U 11080B   26196.43294816 -.00000083  00000+0  11595-3 0  9992
2 38041  52.0069 293.0224 0000298  83.1716 355.0622 12.62257435672451
GLOBALSTAR M082         
1 38042U 11080C   26196.45370036 -.00000072  00000+0  17723-3 0  9991
2 38042  52.0062 248.4631 0000194  88.4428  14.0807 12.62264246673168
GLOBALSTAR M092         
1 38043U 11080D   26196.83693785 -.00000088  00000+0  88256-4 0  9990
2 38043  52.0105 337.6936 0000779 103.6458  60.5815 12.62267811671667
GLOBALSTAR M090         
1 38044U 11080E   26196.31700969 -.00000053  00000+0  28459-3 0  9997
2 38044  52.0106 242.8440 0000427  91.1185 348.7415 12.62269578673261
GLOBALSTAR M086         
1 38045U 11080F   26196.42344416 -.00000087  00000+0  91631-4 0  9991
2 38045  51.9879 242.4025 0001511 112.0880 355.3845 12.62287762673224
GLOBALSTAR M097         
1 39072U 13005A   26196.27322908 -.00000127  00000+0 -12925-3 0  9990
2 39072  52.0027 157.8386 0000444  40.0148 320.0752 12.62271384620458
GLOBALSTAR M093         
1 39073U 13005B   26196.80075203 -.00000117  00000+0 -76055-4 0  9997
2 39073  52.0089 149.5905 0000669  45.0798 315.0123 12.62266309620476
GLOBALSTAR M094         
1 39074U 13005C   26196.80060750 -.00000104  00000+0  11299-6 0  9995
2 39074  51.9974  63.6800 0000996  63.3164 296.7804 12.62264174622089
GLOBALSTAR M096         
1 39075U 13005D   26196.18066089 -.00000102  00000+0  90279-5 0  9990
2 39075  52.0070 114.3905 0000742  41.7537 318.3386 12.62265715620921
GLOBALSTAR M078         
1 39076U 13005E   26196.70807874 -.00000120  00000+0 -88102-4 0  9996
2 39076  51.9845 196.7563 0000848 339.7594  20.3239 12.62260143619615
GLOBALSTAR M095         
1 39077U 13005F   26196.73475765 -.00000119  00000+0 -85055-4 0  9992
2 39077  52.0054 194.3192 0000469  13.1932 346.8947 12.62264145619472
GLOBALSTAR M087         
1 52888U 22064A   26196.66868376 -.00000103  00000+0  43333-5 0  9994
2 52888  52.0013 335.7423 0000918  85.2007 274.8964 12.62269258194738
